[{"OBJECT_NAME":"OBJECT E","OBJECT_ID":"2023-091E","EPOCH":"2026-03-09T22:26:33.073728","MEAN_MOTION":15.22514482,"ECCENTRICITY":0.00108779,"INCLINATION":97.5235,"RA_OF_ASC_NODE":130.4024,"ARG_OF_PERICENTER":84.6411,"MEAN_ANOMALY":275.6066,"EPHEMERIS_TYPE":0,"CLASSIFICATION_TYPE":"U","NORAD_CAT_ID":57170,"ELEMENT_SET_NO":999,"REV_AT_EPOCH":14905,"BSTAR":0.00044574871,"MEAN_MOTION_DOT":0.00010283,"MEAN_MOTION_DDOT":0},{"OBJECT_NAME":"TRANSPORTER-15 OBJECT H","OBJECT_ID":"2025-276H","EPOCH":"2026-03-09T17:32:53.221056","MEAN_MOTION":15.1998776,"ECCENTRICITY":0.00060412,"INCLINATION":97.4225,"RA_OF_ASC_NODE":143.9657,"ARG_OF_PERICENTER":14.2077,"MEAN_ANOMALY":345.9327,"EPHEMERIS_TYPE":0,"CLASSIFICATION_TYPE":"U","NORAD_CAT_ID":66673,"ELEMENT_SET_NO":999,"REV_AT_EPOCH":1532,"BSTAR":0.00046258032,"MEAN_MOTION_DOT":9.902e-5,"MEAN_MOTION_DDOT":0}]
